CCSDS_OMM_VERS = 2.0
CREATION_DATE  = 
ORIGINATOR     = 

OBJECT_NAME    = STARLINK-35376
OBJECT_ID      = 2025-232P
CENTER_NAME    = EARTH
REF_FRAME      = TEME
TIME_SYSTEM    = UTC
MEAN_ELEMENT_THEORY = SGP/SGP4

EPOCH          = 2025-10-27T06:00:02.000160
MEAN_MOTION    = 15.81856331
ECCENTRICITY   = .00012105
INCLINATION    = 53.1552
RA_OF_ASC_NODE = 8.4861
ARG_OF_PERICENTER = 79.7341
MEAN_ANOMALY   = 102.7275

EPHEMERIS_TYPE = 0
CLASSIFICATION_TYPE = U
NORAD_CAT_ID   = 66018
ELEMENT_SET_NO = 999
REV_AT_EPOCH   = 208
BSTAR          = -.88942117E-2
MEAN_MOTION_DOT = -.1606398E-1
MEAN_MOTION_DDOT = 0

CCSDS_OMM_VERS = 2.0
CREATION_DATE  = 
ORIGINATOR     = 

OBJECT_NAME    = STARLINK-35382
OBJECT_ID      = 2025-232Q
CENTER_NAME    = EARTH
REF_FRAME      = TEME
TIME_SYSTEM    = UTC
MEAN_ELEMENT_THEORY = SGP/SGP4

EPOCH          = 2025-10-27T06:00:02.000160
MEAN_MOTION    = 15.81953616
ECCENTRICITY   = .00011807
INCLINATION    = 53.1554
RA_OF_ASC_NODE = 8.5012
ARG_OF_PERICENTER = 76.4717
MEAN_ANOMALY   = 98.6247

EPHEMERIS_TYPE = 0
CLASSIFICATION_TYPE = U
NORAD_CAT_ID   = 66019
ELEMENT_SET_NO = 999
REV_AT_EPOCH   = 208
BSTAR          = -.86530649E-2
MEAN_MOTION_DOT = -.1574604E-1
MEAN_MOTION_DDOT = 0

CCSDS_OMM_VERS = 2.0
CREATION_DATE  = 
ORIGINATOR     = 

OBJECT_NAME    = STARLINK-35430
OBJECT_ID      = 2025-232R
CENTER_NAME    = EARTH
REF_FRAME      = TEME
TIME_SYSTEM    = UTC
MEAN_ELEMENT_THEORY = SGP/SGP4

EPOCH          = 2025-10-27T06:00:02.000160
MEAN_MOTION    = 15.81847383
ECCENTRICITY   = .00009788
INCLINATION    = 53.1546
RA_OF_ASC_NODE = 8.4723
ARG_OF_PERICENTER = 83.8624
MEAN_ANOMALY   = 104.9632

EPHEMERIS_TYPE = 0
CLASSIFICATION_TYPE = U
NORAD_CAT_ID   = 66020
ELEMENT_SET_NO = 999
REV_AT_EPOCH   = 207
BSTAR          = -.90223151E-2
MEAN_MOTION_DOT = -.162572E-1
MEAN_MOTION_DDOT = 0

CCSDS_OMM_VERS = 2.0
CREATION_DATE  = 
ORIGINATOR     = 

OBJECT_NAME    = STARLINK-35432
OBJECT_ID      = 2025-232S
CENTER_NAME    = EARTH
REF_FRAME      = TEME
TIME_SYSTEM    = UTC
MEAN_ELEMENT_THEORY = SGP/SGP4

EPOCH          = 2025-10-27T06:00:02.000160
MEAN_MOTION    = 15.81874055
ECCENTRICITY   = .00009941
INCLINATION    = 53.1545
RA_OF_ASC_NODE = 8.4769
ARG_OF_PERICENTER = 80.6240
MEAN_ANOMALY   = 105.7965

EPHEMERIS_TYPE = 0
CLASSIFICATION_TYPE = U
NORAD_CAT_ID   = 66021
ELEMENT_SET_NO = 999
REV_AT_EPOCH   = 200
BSTAR          = -.89380621E-2
MEAN_MOTION_DOT = -.1614292E-1
MEAN_MOTION_DDOT = 0

CCSDS_OMM_VERS = 2.0
CREATION_DATE  = 
ORIGINATOR     = 

OBJECT_NAME    = STARLINK-35340
OBJECT_ID      = 2025-232T
CENTER_NAME    = EARTH
REF_FRAME      = TEME
TIME_SYSTEM    = UTC
MEAN_ELEMENT_THEORY = SGP/SGP4

EPOCH          = 2025-10-27T06:00:02.000160
MEAN_MOTION    = 15.81855931
ECCENTRICITY   = .00012241
INCLINATION    = 53.1551
RA_OF_ASC_NODE = 8.4682
ARG_OF_PERICENTER = 75.6691
MEAN_ANOMALY   = 115.1562

EPHEMERIS_TYPE = 0
CLASSIFICATION_TYPE = U
NORAD_CAT_ID   = 66022
ELEMENT_SET_NO = 999
REV_AT_EPOCH   = 207
BSTAR          = -.90640919E-2
MEAN_MOTION_DOT = -.1633026E-1
MEAN_MOTION_DDOT = 0

CCSDS_OMM_VERS = 2.0
CREATION_DATE  = 
ORIGINATOR     = 

OBJECT_NAME    = STARLINK-35394
OBJECT_ID      = 2025-232U
CENTER_NAME    = EARTH
REF_FRAME      = TEME
TIME_SYSTEM    = UTC
MEAN_ELEMENT_THEORY = SGP/SGP4

EPOCH          = 2025-10-27T06:00:02.000160
MEAN_MOTION    = 15.81852129
ECCENTRICITY   = .00012496
INCLINATION    = 53.1550
RA_OF_ASC_NODE = 8.4635
ARG_OF_PERICENTER = 79.0941
MEAN_ANOMALY   = 113.8959

EPHEMERIS_TYPE = 0
CLASSIFICATION_TYPE = U
NORAD_CAT_ID   = 66023
ELEMENT_SET_NO = 999
REV_AT_EPOCH   = 207
BSTAR          = -.91298399E-2
MEAN_MOTION_DOT = -.1643064E-1
MEAN_MOTION_DDOT = 0

CCSDS_OMM_VERS = 2.0
CREATION_DATE  = 
ORIGINATOR     = 

OBJECT_NAME    = STARLINK-35410
OBJECT_ID      = 2025-232V
CENTER_NAME    = EARTH
REF_FRAME      = TEME
TIME_SYSTEM    = UTC
MEAN_ELEMENT_THEORY = SGP/SGP4

EPOCH          = 2025-10-27T06:00:02.000160
MEAN_MOTION    = 15.81823452
ECCENTRICITY   = .0001235
INCLINATION    = 53.1548
RA_OF_ASC_NODE = 8.4544
ARG_OF_PERICENTER = 81.3202
MEAN_ANOMALY   = 116.1380

EPHEMERIS_TYPE = 0
CLASSIFICATION_TYPE = U
NORAD_CAT_ID   = 66024
ELEMENT_SET_NO = 999
REV_AT_EPOCH   = 207
BSTAR          = -.92305937E-2
MEAN_MOTION_DOT = -.1656804E-1
MEAN_MOTION_DDOT = 0

CCSDS_OMM_VERS = 2.0
CREATION_DATE  = 
ORIGINATOR     = 

OBJECT_NAME    = STARLINK-35280
OBJECT_ID      = 2025-232W
CENTER_NAME    = EARTH
REF_FRAME      = TEME
TIME_SYSTEM    = UTC
MEAN_ELEMENT_THEORY = SGP/SGP4

EPOCH          = 2025-10-27T06:00:02.000160
MEAN_MOTION    = 15.81857092
ECCENTRICITY   = .00013033
INCLINATION    = 53.1550
RA_OF_ASC_NODE = 8.4591
ARG_OF_PERICENTER = 87.0052
MEAN_ANOMALY   = 107.9508

EPHEMERIS_TYPE = 0
CLASSIFICATION_TYPE = U
NORAD_CAT_ID   = 66025
ELEMENT_SET_NO = 999
REV_AT_EPOCH   = 201
BSTAR          = -.9125314E-2
MEAN_MOTION_DOT = -.1642737E-1
MEAN_MOTION_DDOT = 0

CCSDS_OMM_VERS = 2.0
CREATION_DATE  = 
ORIGINATOR     = 

OBJECT_NAME    = STARLINK-34812
OBJECT_ID      = 2025-232X
CENTER_NAME    = EARTH
REF_FRAME      = TEME
TIME_SYSTEM    = UTC
MEAN_ELEMENT_THEORY = SGP/SGP4

EPOCH          = 2025-10-27T06:00:02.000160
MEAN_MOTION    = 15.81824775
ECCENTRICITY   = .00011769
INCLINATION    = 53.1551
RA_OF_ASC_NODE = 8.4501
ARG_OF_PERICENTER = 81.5862
MEAN_ANOMALY   = 117.9331

EPHEMERIS_TYPE = 0
CLASSIFICATION_TYPE = U
NORAD_CAT_ID   = 66026
ELEMENT_SET_NO = 999
REV_AT_EPOCH   = 202
BSTAR          = -.9262903E-2
MEAN_MOTION_DOT = -.166186E-1
MEAN_MOTION_DDOT = 0

CCSDS_OMM_VERS = 2.0
CREATION_DATE  = 
ORIGINATOR     = 

OBJECT_NAME    = STARLINK-35341
OBJECT_ID      = 2025-232Y
CENTER_NAME    = EARTH
REF_FRAME      = TEME
TIME_SYSTEM    = UTC
MEAN_ELEMENT_THEORY = SGP/SGP4

EPOCH          = 2025-10-27T06:00:02.000160
MEAN_MOTION    = 15.81780422
ECCENTRICITY   = .00011971
INCLINATION    = 53.1549
RA_OF_ASC_NODE = 8.4447
ARG_OF_PERICENTER = 80.3927
MEAN_ANOMALY   = 121.6974

EPHEMERIS_TYPE = 0
CLASSIFICATION_TYPE = U
NORAD_CAT_ID   = 66027
ELEMENT_SET_NO = 999
REV_AT_EPOCH   = 207
BSTAR          = -.93586783E-2
MEAN_MOTION_DOT = -.1673689E-1
MEAN_MOTION_DDOT = 0

CCSDS_OMM_VERS = 2.0
CREATION_DATE  = 
ORIGINATOR     = 

OBJECT_NAME    = STARLINK-35339
OBJECT_ID      = 2025-232Z
CENTER_NAME    = EARTH
REF_FRAME      = TEME
TIME_SYSTEM    = UTC
MEAN_ELEMENT_THEORY = SGP/SGP4

EPOCH          = 2025-10-27T06:00:02.000160
MEAN_MOTION    = 15.81761584
ECCENTRICITY   = .00011043
INCLINATION    = 53.1550
RA_OF_ASC_NODE = 8.4398
ARG_OF_PERICENTER = 83.8920
MEAN_ANOMALY   = 120.4933

EPHEMERIS_TYPE = 0
CLASSIFICATION_TYPE = U
NORAD_CAT_ID   = 66028
ELEMENT_SET_NO = 999
REV_AT_EPOCH   = 201
BSTAR          = -.94157796E-2
MEAN_MOTION_DOT = -.1681129E-1
MEAN_MOTION_DDOT = 0

CCSDS_OMM_VERS = 2.0
CREATION_DATE  = 
ORIGINATOR     = 

OBJECT_NAME    = STARLINK-35399
OBJECT_ID      = 2025-232AA
CENTER_NAME    = EARTH
REF_FRAME      = TEME
TIME_SYSTEM    = UTC
MEAN_ELEMENT_THEORY = SGP/SGP4

EPOCH          = 2025-10-27T06:00:02.000160
MEAN_MOTION    = 15.81743730
ECCENTRICITY   = .00009065
INCLINATION    = 53.1549
RA_OF_ASC_NODE = 8.4353
ARG_OF_PERICENTER = 88.6632
MEAN_ANOMALY   = 118.0382

EPHEMERIS_TYPE = 0
CLASSIFICATION_TYPE = U
NORAD_CAT_ID   = 66029
ELEMENT_SET_NO = 999
REV_AT_EPOCH   = 201
BSTAR          = -.94909841E-2
MEAN_MOTION_DOT = -.1691299E-1
MEAN_MOTION_DDOT = 0

