STARLINK-35376          
1 66018U 25232P   25300.25002315 -.01606398  00000+0 -88942-2 0  9990
2 66018  53.1552   8.4861 0001210  79.7341 102.7275 15.81856331  2081
STARLINK-35382          
1 66019U 25232Q   25300.25002315 -.01574604  00000+0 -86531-2 0  9997
2 66019  53.1554   8.5012 0001180  76.4717  98.6247 15.81953616  2086
STARLINK-35430          
1 66020U 25232R   25300.25002315 -.01625720  00000+0 -90223-2 0  9998
2 66020  53.1546   8.4723 0000978  83.8624 104.9632 15.81847383  2071
STARLINK-35432          
1 66021U 25232S   25300.25002315 -.01614292  00000+0 -89381-2 0  9994
2 66021  53.1545   8.4769 0000994  80.6240 105.7965 15.81874055  2005
STARLINK-35340          
1 66022U 25232T   25300.25002315 -.01633026  00000+0 -90641-2 0  9992
2 66022  53.1551   8.4682 0001224  75.6691 115.1562 15.81855931  2075
STARLINK-35394          
1 66023U 25232U   25300.25002315 -.01643064  00000+0 -91298-2 0  9995
2 66023  53.1550   8.4635 0001249  79.0941 113.8959 15.81852129  2077
STARLINK-35410          
1 66024U 25232V   25300.25002315 -.01656804  00000+0 -92306-2 0  9993
2 66024  53.1548   8.4544 0001235  81.3202 116.1380 15.81823452  2076
STARLINK-35280          
1 66025U 25232W   25300.25002315 -.01642737  00000+0 -91253-2 0  9994
2 66025  53.1550   8.4591 0001303  87.0052 107.9508 15.81857092  2015
STARLINK-34812          
1 66026U 25232X   25300.25002315 -.01661860  00000+0 -92629-2 0  9991
2 66026  53.1551   8.4501 0001176  81.5862 117.9331 15.81824775  2022
STARLINK-35341          
1 66027U 25232Y   25300.25002315 -.01673689  00000+0 -93587-2 0  9998
2 66027  53.1549   8.4447 0001197  80.3927 121.6974 15.81780422  2071
STARLINK-35339          
1 66028U 25232Z   25300.25002315 -.01681129  00000+0 -94158-2 0  9992
2 66028  53.1550   8.4398 0001104  83.8920 120.4933 15.81761584  2012
STARLINK-35399          
1 66029U 25232AA  25300.25002315 -.01691299  00000+0 -94910-2 0  9998
2 66029  53.1549   8.4353 0000906  88.6632 118.0382 15.81743730  2018
